[
  {
    "CCSDS_OMM_VERS": "3.0",
    "COMMENT": "GENERATED VIA SPACE-TRACK.ORG API",
    "CREATION_DATE": "2009-05-18T18:13:06",
    "ORIGINATOR": "18 SPCS",
    "OBJECT_NAME": "IRIDIUM 33 DEB",
    "OBJECT_ID": "1997-051LK",
    "CENTER_NAME": "EARTH",
    "REF_FRAME": "TEME",
    "TIME_SYSTEM": "UTC",
    "MEAN_ELEMENT_THEORY": "SGP4",
    "EPOCH": "2009-05-16T19:50:49.903872",
    "MEAN_MOTION": "14.51252001",
    "ECCENTRICITY": "0.04323460",
    "INCLINATION": "86.2711",
    "RA_OF_ASC_NODE": "86.8659",
    "ARG_OF_PERICENTER": "76.6759",
    "MEAN_ANOMALY": "288.6966",
    "EPHEMERIS_TYPE": "0",
    "CLASSIFICATION_TYPE": "U",
    "NORAD_CAT_ID": "34766",
    "ELEMENT_SET_NO": "999",
    "REV_AT_EPOCH": "908",
    "BSTAR": "0.61652000000000",
    "MEAN_MOTION_DOT": "0.09785721",
    "MEAN_MOTION_DDOT": "0.0000000000000",
    "SEMIMAJOR_AXIS": "7099.703",
    "PERIOD": "99.224",
    "APOAPSIS": "1028.521",
    "PERIAPSIS": "414.615",
    "OBJECT_TYPE": "DEBRIS",
    "RCS_SIZE": "SMALL",
    "COUNTRY_CODE": "US",
    "LAUNCH_DATE": "1997-09-14",
    "SITE": "TTMTR",
    "DECAY_DATE": "2009-05-19",
    "FILE": "716710",
    "GP_ID": "71282597",
    "TLE_LINE0": "0 IRIDIUM 33 DEB",
    "TLE_LINE1": "1 34766U 97051LK  09136.82696648  .09785721  00000-0  61652+0 0  9994",
    "TLE_LINE2": "2 34766 086.2711 086.8659 0432346 076.6759 288.6966 14.51252001  9080"
  },
  {
    "CCSDS_OMM_VERS": "3.0",
    "COMMENT": "GENERATED VIA SPACE-TRACK.ORG API",
    "CREATION_DATE": "2014-02-01T15:43:22",
    "ORIGINATOR": "18 SPCS",
    "OBJECT_NAME": "IRIDIUM 33 DEB",
    "OBJECT_ID": "1997-051LL",
    "CENTER_NAME": "EARTH",
    "REF_FRAME": "TEME",
    "TIME_SYSTEM": "UTC",
    "MEAN_ELEMENT_THEORY": "SGP4",
    "EPOCH": "2014-02-01T03:26:01.216031",
    "MEAN_MOTION": "15.84006256",
    "ECCENTRICITY": "0.00097080",
    "INCLINATION": "86.3623",
    "RA_OF_ASC_NODE": "76.6684",
    "ARG_OF_PERICENTER": "61.1332",
    "MEAN_ANOMALY": "358.0365",
    "EPHEMERIS_TYPE": "0",
    "CLASSIFICATION_TYPE": "U",
    "NORAD_CAT_ID": "34767",
    "ELEMENT_SET_NO": "999",
    "REV_AT_EPOCH": "26055",
    "BSTAR": "0.04455400000000",
    "MEAN_MOTION_DOT": "0.12500277",
    "MEAN_MOTION_DDOT": "0.0000000000000",
    "SEMIMAJOR_AXIS": "6697.265",
    "PERIOD": "90.908",
    "APOAPSIS": "325.632",
    "PERIAPSIS": "312.628",
    "OBJECT_TYPE": "DEBRIS",
    "RCS_SIZE": "SMALL",
    "COUNTRY_CODE": "US",
    "LAUNCH_DATE": "1997-09-14",
    "SITE": "TTMTR",
    "DECAY_DATE": "2014-02-01",
    "FILE": "1624870",
    "GP_ID": "95045058",
    "TLE_LINE0": "0 IRIDIUM 33 DEB",
    "TLE_LINE1": "1 34767U 97051LL  14032.14306963  .12500277  00000-0  44554-1 0  9998",
    "TLE_LINE2": "2 34767 086.3623 076.6684 0009708 061.1332 358.0365 15.84006256260559"
  },
  {
    "CCSDS_OMM_VERS": "3.0",
    "COMMENT": "GENERATED VIA SPACE-TRACK.ORG API",
    "CREATION_DATE": "2011-12-10T16:13:57",
    "ORIGINATOR": "18 SPCS",
    "OBJECT_NAME": "IRIDIUM 33 DEB",
    "OBJECT_ID": "1997-051LM",
    "CENTER_NAME": "EARTH",
    "REF_FRAME": "TEME",
    "TIME_SYSTEM": "UTC",
    "MEAN_ELEMENT_THEORY": "SGP4",
    "EPOCH": "2011-12-10T16:59:52.517471",
    "MEAN_MOTION": "15.28761347",
    "ECCENTRICITY": "0.00356680",
    "INCLINATION": "85.9910",
    "RA_OF_ASC_NODE": "50.4737",
    "ARG_OF_PERICENTER": "211.8897",
    "MEAN_ANOMALY": "148.0718",
    "EPHEMERIS_TYPE": "0",
    "CLASSIFICATION_TYPE": "U",
    "NORAD_CAT_ID": "34768",
    "ELEMENT_SET_NO": "999",
    "REV_AT_EPOCH": "14093",
    "BSTAR": "0.31835000000000",
    "MEAN_MOTION_DOT": "0.10660773",
    "MEAN_MOTION_DDOT": "0.0000000000000",
    "SEMIMAJOR_AXIS": "6857.655",
    "PERIOD": "94.193",
    "APOAPSIS": "503.980",
    "PERIAPSIS": "455.060",
    "OBJECT_TYPE": "DEBRIS",
    "RCS_SIZE": "SMALL",
    "COUNTRY_CODE": "US",
    "LAUNCH_DATE": "1997-09-14",
    "SITE": "TTMTR",
    "DECAY_DATE": "2011-12-12",
    "FILE": "1203862",
    "GP_ID": "86288368",
    "TLE_LINE0": "0 IRIDIUM 33 DEB",
    "TLE_LINE1": "1 34768U 97051LM  11344.70824673  .10660773  00000-0  31835+0 0  9999",
    "TLE_LINE2": "2 34768 085.9910 050.4737 0035668 211.8897 148.0718 15.28761347140932"
  },
  {
    "CCSDS_OMM_VERS": "3.0",
    "COMMENT": "GENERATED VIA SPACE-TRACK.ORG API",
    "CREATION_DATE": "2012-04-13T09:43:08",
    "ORIGINATOR": "18 SPCS",
    "OBJECT_NAME": "IRIDIUM 33 DEB",
    "OBJECT_ID": "1997-051LN",
    "CENTER_NAME": "EARTH",
    "REF_FRAME": "TEME",
    "TIME_SYSTEM": "UTC",
    "MEAN_ELEMENT_THEORY": "SGP4",
    "EPOCH": "2012-04-10T03:02:43.986336",
    "MEAN_MOTION": "15.58036917",
    "ECCENTRICITY": "0.00725020",
    "INCLINATION": "85.8485",
    "RA_OF_ASC_NODE": "356.4577",
    "ARG_OF_PERICENTER": "71.6495",
    "MEAN_ANOMALY": "289.0524",
    "EPHEMERIS_TYPE": "0",
    "CLASSIFICATION_TYPE": "U",
    "NORAD_CAT_ID": "34769",
    "ELEMENT_SET_NO": "999",
    "REV_AT_EPOCH": "15757",
    "BSTAR": "0.11209000000000",
    "MEAN_MOTION_DOT": "0.11600738",
    "MEAN_MOTION_DDOT": "0.0000000000000",
    "SEMIMAJOR_AXIS": "6771.480",
    "PERIOD": "92.423",
    "APOAPSIS": "442.439",
    "PERIAPSIS": "344.250",
    "OBJECT_TYPE": "DEBRIS",
    "RCS_SIZE": "SMALL",
    "COUNTRY_CODE": "US",
    "LAUNCH_DATE": "1997-09-14",
    "SITE": "TTMTR",
    "DECAY_DATE": "2012-04-11",
    "FILE": "1270074",
    "GP_ID": "88185515",
    "TLE_LINE0": "0 IRIDIUM 33 DEB",
    "TLE_LINE1": "1 34769U 97051LN  12101.12689799  .11600738  00000-0  11209+0 0  9995",
    "TLE_LINE2": "2 34769 085.8485 356.4577 0072502 071.6495 289.0524 15.58036917157574"
  },
  {
    "CCSDS_OMM_VERS": "3.0",
    "COMMENT": "GENERATED VIA SPACE-TRACK.ORG API",
    "CREATION_DATE": "2009-04-15T11:26:48",
    "ORIGINATOR": "18 SPCS",
    "OBJECT_NAME": "IRIDIUM 33 DEB",
    "OBJECT_ID": "1997-051LP",
    "CENTER_NAME": "EARTH",
    "REF_FRAME": "TEME",
    "TIME_SYSTEM": "UTC",
    "MEAN_ELEMENT_THEORY": "SGP4",
    "EPOCH": "2009-04-15T02:44:17.758751",
    "MEAN_MOTION": "15.71100364",
    "ECCENTRICITY": "0.01017380",
    "INCLINATION": "86.3425",
    "RA_OF_ASC_NODE": "95.7494",
    "ARG_OF_PERICENTER": "104.6770",
    "MEAN_ANOMALY": "306.3944",
    "EPHEMERIS_TYPE": "0",
    "CLASSIFICATION_TYPE": "U",
    "NORAD_CAT_ID": "34770",
    "ELEMENT_SET_NO": "999",
    "REV_AT_EPOCH": "842",
    "BSTAR": "0.12897000000000",
    "MEAN_MOTION_DOT": "0.13798299",
    "MEAN_MOTION_DDOT": "0.4322100000000",
    "SEMIMAJOR_AXIS": "6733.892",
    "PERIOD": "91.655",
    "APOAPSIS": "424.266",
    "PERIAPSIS": "287.248",
    "OBJECT_TYPE": "DEBRIS",
    "RCS_SIZE": null,
    "COUNTRY_CODE": "US",
    "LAUNCH_DATE": "1997-09-14",
    "SITE": "TTMTR",
    "DECAY_DATE": "2009-04-15",
    "FILE": "701414",
    "GP_ID": "70791956",
    "TLE_LINE0": "0 IRIDIUM 33 DEB",
    "TLE_LINE1": "1 34770U 97051LP  09105.11409443  .13798299  43221+0  12897+0 0  9999",
    "TLE_LINE2": "2 34770 086.3425 095.7494 0101738 104.6770 306.3944 15.71100364  8425"
  },
  {
    "CCSDS_OMM_VERS": "3.0",
    "COMMENT": "GENERATED VIA SPACE-TRACK.ORG API",
    "CREATION_DATE": "2013-03-13T17:04:15",
    "ORIGINATOR": "18 SPCS",
    "OBJECT_NAME": "IRIDIUM 33 DEB",
    "OBJECT_ID": "1997-051LQ",
    "CENTER_NAME": "EARTH",
    "REF_FRAME": "TEME",
    "TIME_SYSTEM": "UTC",
    "MEAN_ELEMENT_THEORY": "SGP4",
    "EPOCH": "2013-03-13T09:22:12.338976",
    "MEAN_MOTION": "15.60662823",
    "ECCENTRICITY": "0.00360530",
    "INCLINATION": "86.3019",
    "RA_OF_ASC_NODE": "206.4584",
    "ARG_OF_PERICENTER": "309.2114",
    "MEAN_ANOMALY": "103.8409",
    "EPHEMERIS_TYPE": "0",
    "CLASSIFICATION_TYPE": "U",
    "NORAD_CAT_ID": "34771",
    "ELEMENT_SET_NO": "999",
    "REV_AT_EPOCH": "21210",
    "BSTAR": "0.06954300000000",
    "MEAN_MOTION_DOT": "0.07158069",
    "MEAN_MOTION_DDOT": "0.0000000000000",
    "SEMIMAJOR_AXIS": "6763.882",
    "PERIOD": "92.268",
    "APOAPSIS": "410.133",
    "PERIAPSIS": "361.361",
    "OBJECT_TYPE": "DEBRIS",
    "RCS_SIZE": "SMALL",
    "COUNTRY_CODE": "US",
    "LAUNCH_DATE": "1997-09-14",
    "SITE": "TTMTR",
    "DECAY_DATE": "2013-03-16",
    "FILE": "1453983",
    "GP_ID": "92407451",
    "TLE_LINE0": "0 IRIDIUM 33 DEB",
    "TLE_LINE1": "1 34771U 97051LQ  13072.39042059  .07158069  00000-0  69543-1 0  9993",
    "TLE_LINE2": "2 34771 086.3019 206.4584 0036053 309.2114 103.8409 15.60662823212107"
  },
  {
    "CCSDS_OMM_VERS": "3.0",
    "COMMENT": "GENERATED VIA SPACE-TRACK.ORG API",
    "CREATION_DATE": "2014-10-03T23:20:27",
    "ORIGINATOR": "18 SPCS",
    "OBJECT_NAME": "IRIDIUM 33 DEB",
    "OBJECT_ID": "1997-051LR",
    "CENTER_NAME": "EARTH",
    "REF_FRAME": "TEME",
    "TIME_SYSTEM": "UTC",
    "MEAN_ELEMENT_THEORY": "SGP4",
    "EPOCH": "2014-10-01T02:16:34.813631",
    "MEAN_MOTION": "15.86498470",
    "ECCENTRICITY": "0.00085580",
    "INCLINATION": "86.3488",
    "RA_OF_ASC_NODE": "309.9200",
    "ARG_OF_PERICENTER": "239.4395",
    "MEAN_ANOMALY": "183.8465",
    "EPHEMERIS_TYPE": "0",
    "CLASSIFICATION_TYPE": "U",
    "NORAD_CAT_ID": "34772",
    "ELEMENT_SET_NO": "999",
    "REV_AT_EPOCH": "29632",
    "BSTAR": "0.03806600000000",
    "MEAN_MOTION_DOT": "0.12464843",
    "MEAN_MOTION_DDOT": "0.0000000000000",
    "SEMIMAJOR_AXIS": "6690.250",
    "PERIOD": "90.765",
    "APOAPSIS": "317.840",
    "PERIAPSIS": "306.389",
    "OBJECT_TYPE": "DEBRIS",
    "RCS_SIZE": "SMALL",
    "COUNTRY_CODE": "US",
    "LAUNCH_DATE": "1997-09-14",
    "SITE": "TTMTR",
    "DECAY_DATE": "2014-10-01",
    "FILE": "1756560",
    "GP_ID": "97156755",
    "TLE_LINE0": "0 IRIDIUM 33 DEB",
    "TLE_LINE1": "1 34772U 97051LR  14274.09484738  .12464843  00000-0  38066-1 0  9992",
    "TLE_LINE2": "2 34772 086.3488 309.9200 0008558 239.4395 183.8465 15.86498470296325"
  }
]